{
    "links": {
        "self": "http://www.neowsapp.com/rest/v1/neo/3771067?api_key=iIulBulltgU6a56xZRHN4H3l9WmuAYTsLGpBGhQ2"
    },
    "id": "3771067",
    "neo_reference_id": "3771067",
    "name": "(2017 EK4)",
    "designation": "2017 EK4",
    "nasa_jpl_url": "http://ssd.jpl.nasa.gov/sbdb.cgi?sstr=3771067",
    "absolute_magnitude_h": 26.4,
    "estimated_diameter": {
        "kilometers": {
            "estimated_diameter_min": 0.0139493823,
            "estimated_diameter_max": 0.0311917671
        },
        "meters": {
            "estimated_diameter_min": 13.9493822934,
            "estimated_diameter_max": 31.1917670523
        },
        "miles": {
            "estimated_diameter_min": 0.0086677416,
            "estimated_diameter_max": 0.0193816595
        },
        "feet": {
            "estimated_diameter_min": 45.7656914036,
            "estimated_diameter_max": 102.3351970157
        }
    },
    "is_potentially_hazardous_asteroid": false,
    "close_approach_data": [
        {
            "close_approach_date": "1954-10-08",
            "close_approach_date_full": "1954-Oct-08 23:49",
            "epoch_date_close_approach": -480643860000,
            "relative_velocity": {
                "kilometers_per_second": "11.3153433643",
                "kilometers_per_hour": "40735.2361113781",
                "miles_per_hour": "25311.2915715394"
            },
            "miss_distance": {
                "astronomical": "0.0929925426",
                "lunar": "36.1740990714",
                "kilometers": "13911486.298844262",
                "miles": "8644196.7493723356"
            },
            "orbiting_body": "Mars"
        },
        {
            "close_approach_date": "1955-03-16",
            "close_approach_date_full": "1955-Mar-16 13:42",
            "epoch_date_close_approach": -466942680000,
            "relative_velocity": {
                "kilometers_per_second": "18.3198317189",
                "kilometers_per_hour": "65951.3941881084",
                "miles_per_hour": "40979.6315720499"
            },
            "miss_distance": {
                "astronomical": "0.2667297587",
                "lunar": "103.7578761343",
                "kilometers": "39902203.767133969",
                "miles": "24794079.7041440122"
            },
            "orbiting_body": "Earth"
        },
        {
            "close_approach_date": "2013-10-09",
            "close_approach_date_full": "2013-Oct-09 23:11",
            "epoch_date_close_approach": 1381360260000,
            "relative_velocity": {
                "kilometers_per_second": "11.3263670862",
                "kilometers_per_hour": "40774.9215101713",
                "miles_per_hour": "25335.9505350284"
            },
            "miss_distance": {
                "astronomical": "0.0887989341",
                "lunar": "34.5427853649",
                "kilometers": "13284131.399630367",
                "miles": "8254376.4912063846"
            },
            "orbiting_body": "Earth"
        },
        {
            "close_approach_date": "2017-03-01",
            "close_approach_date_full": "2017-Mar-01 01:42",
            "epoch_date_close_approach": 1488332520000,
            "relative_velocity": {
                "kilometers_per_second": "10.7519973574",
                "kilometers_per_hour": "38707.190486626",
                "miles_per_hour": "24051.1428887593"
            },
            "miss_distance": {
                "astronomical": "0.0279541537",
                "lunar": "10.8741657893",
                "kilometers": "4181881.851172619",
                "miles": "2598500.8882313822"
            },
            "orbiting_body": "Earth"
        }
    ],
    "orbital_data": {
        "orbit_id": "3",
        "orbit_determination_date": "2017-04-06 08:19:35",
        "first_observation_date": "2017-03-08",
        "last_observation_date": "2017-03-17",
        "data_arc_in_days": 9,
        "observations_used": 21,
        "orbit_uncertainty": "8",
        "minimum_orbit_intersection": ".0272634",
        "jupiter_tisserand_invariant": "4.812",
        "epoch_osculation": "2457821.5",
        "eccentricity": ".3832079906153777",
        "semi_major_axis": "1.338401602338805",
        "inclination": "9.429985563760431",
        "ascending_node_longitude": "169.2691924432095",
        "orbital_period": "565.5592354531607",
        "perihelion_distance": ".8255154136701499",
        "perihelion_argument": "282.5686941327907",
        "aphelion_distance": "1.851287791007461",
        "perihelion_time": "2457762.432789061935",
        "mean_anomaly": "37.59853010032667",
        "mean_motion": ".636538097926287",
        "equinox": "J2000",
        "orbit_class": {
            "orbit_class_type": "APO",
            "orbit_class_description": "Near-Earth asteroid orbits which cross the Earth’s orbit similar to that of 1862 Apollo",
            "orbit_class_range": "a (semi-major axis) > 1.0 AU; q (perihelion) < 1.017 AU"
        }
    },
    "is_sentry_object": false
}